sat04921
1 04921U 70025FT  20046.50893643  .00000437  00000-0  19085-3 0  9990
2 04921  99.7594 247.5061 0053548 241.5370 118.0407 14.29107107543277
